{"fetched_at":"2026-07-15T06:36:17.617Z","source":"https://celestrak.org/NORAD/elements/gp.php?NAME=O3B&FORMAT=JSON","constellation":"o3b-mpower","records":[{"OBJECT_NAME":"O3B MPOWER F1","OBJECT_ID":"2022-174A","EPOCH":"2026-07-14T17:47:58.242912","CLASSIFICATION_TYPE":"U","MEAN_MOTION":5.00114715,"ECCENTRICITY":0.00066339,"INCLINATION":0.0492,"RA_OF_ASC_NODE":339.4155,"ARG_OF_PERICENTER":144.7519,"MEAN_ANOMALY":259.8126,"EPHEMERIS_TYPE":0,"NORAD_CAT_ID":54755,"ELEMENT_SET_NO":999,"REV_AT_EPOCH":6673,"BSTAR":0,"MEAN_MOTION_DOT":-2.3e-7,"MEAN_MOTION_DDOT":0},{"OBJECT_NAME":"O3B MPOWER F2","OBJECT_ID":"2022-174B","EPOCH":"2026-07-14T16:40:54.538752","CLASSIFICATION_TYPE":"U","MEAN_MOTION":5.0011492,"ECCENTRICITY":0.00057894,"INCLINATION":0.0451,"RA_OF_ASC_NODE":339.8088,"ARG_OF_PERICENTER":128.0659,"MEAN_ANOMALY":252.185,"EPHEMERIS_TYPE":0,"NORAD_CAT_ID":54756,"ELEMENT_SET_NO":999,"REV_AT_EPOCH":6682,"BSTAR":0,"MEAN_MOTION_DOT":-2.3e-7,"MEAN_MOTION_DDOT":0},{"OBJECT_NAME":"O3B MPOWER F4","OBJECT_ID":"2023-059A","EPOCH":"2026-07-14T08:37:42.926304","CLASSIFICATION_TYPE":"U","MEAN_MOTION":5.00115365,"ECCENTRICITY":0.0007729,"INCLINATION":0.0629,"RA_OF_ASC_NODE":350.0646,"ARG_OF_PERICENTER":126.2127,"MEAN_ANOMALY":243.7991,"EPHEMERIS_TYPE":0,"NORAD_CAT_ID":56367,"ELEMENT_SET_NO":999,"REV_AT_EPOCH":5996,"BSTAR":0,"MEAN_MOTION_DOT":-2.2e-7,"MEAN_MOTION_DDOT":0},{"OBJECT_NAME":"O3B MPOWER F3","OBJECT_ID":"2023-059B","EPOCH":"2026-07-14T19:01:06.670848","CLASSIFICATION_TYPE":"U","MEAN_MOTION":5.00116409,"ECCENTRICITY":0.00066709,"INCLINATION":0.0636,"RA_OF_ASC_NODE":349.2748,"ARG_OF_PERICENTER":120.6211,"MEAN_ANOMALY":250.1725,"EPHEMERIS_TYPE":0,"NORAD_CAT_ID":56368,"ELEMENT_SET_NO":999,"REV_AT_EPOCH":5611,"BSTAR":0,"MEAN_MOTION_DOT":-2.3e-7,"MEAN_MOTION_DDOT":0},{"OBJECT_NAME":"O3B MPOWER F5","OBJECT_ID":"2023-175A","EPOCH":"2026-07-14T16:38:42.202464","CLASSIFICATION_TYPE":"U","MEAN_MOTION":5.00115879,"ECCENTRICITY":0.00055,"INCLINATION":0.0522,"RA_OF_ASC_NODE":9.1967,"ARG_OF_PERICENTER":122.1582,"MEAN_ANOMALY":228.689,"EPHEMERIS_TYPE":0,"NORAD_CAT_ID":58346,"ELEMENT_SET_NO":999,"REV_AT_EPOCH":5081,"BSTAR":0,"MEAN_MOTION_DOT":-2.3e-7,"MEAN_MOTION_DDOT":0},{"OBJECT_NAME":"O3B MPOWER F6","OBJECT_ID":"2023-175B","EPOCH":"2026-07-14T19:03:23.444640","CLASSIFICATION_TYPE":"U","MEAN_MOTION":5.00115737,"ECCENTRICITY":0.00044312,"INCLINATION":0.054,"RA_OF_ASC_NODE":0.883,"ARG_OF_PERICENTER":111.0991,"MEAN_ANOMALY":248.0615,"EPHEMERIS_TYPE":0,"NORAD_CAT_ID":58347,"ELEMENT_SET_NO":999,"REV_AT_EPOCH":4973,"BSTAR":0,"MEAN_MOTION_DOT":-2.3e-7,"MEAN_MOTION_DDOT":0},{"OBJECT_NAME":"O3B MPOWER F7","OBJECT_ID":"2024-244A","EPOCH":"2026-07-14T15:51:09.897408","CLASSIFICATION_TYPE":"U","MEAN_MOTION":5.00115331,"ECCENTRICITY":0.00059307,"INCLINATION":0.066,"RA_OF_ASC_NODE":342.9592,"ARG_OF_PERICENTER":126.1262,"MEAN_ANOMALY":250.9755,"EPHEMERIS_TYPE":0,"NORAD_CAT_ID":62362,"ELEMENT_SET_NO":999,"REV_AT_EPOCH":2790,"BSTAR":0,"MEAN_MOTION_DOT":-2.3e-7,"MEAN_MOTION_DDOT":0},{"OBJECT_NAME":"O3B MPOWER F8","OBJECT_ID":"2024-244B","EPOCH":"2026-07-14T15:03:34.405056","CLASSIFICATION_TYPE":"U","MEAN_MOTION":5.00114998,"ECCENTRICITY":0.00057596,"INCLINATION":0.0144,"RA_OF_ASC_NODE":3.5261,"ARG_OF_PERICENTER":98.2666,"MEAN_ANOMALY":258.2685,"EPHEMERIS_TYPE":0,"NORAD_CAT_ID":62363,"ELEMENT_SET_NO":999,"REV_AT_EPOCH":2224,"BSTAR":0,"MEAN_MOTION_DOT":-2.3e-7,"MEAN_MOTION_DDOT":0},{"OBJECT_NAME":"O3B MPOWER F9","OBJECT_ID":"2025-153A","EPOCH":"2026-07-14T13:27:38.598624","CLASSIFICATION_TYPE":"U","MEAN_MOTION":5.00115641,"ECCENTRICITY":0.00067231,"INCLINATION":0.0613,"RA_OF_ASC_NODE":5.6463,"ARG_OF_PERICENTER":125.789,"MEAN_ANOMALY":228.6191,"EPHEMERIS_TYPE":0,"NORAD_CAT_ID":64866,"ELEMENT_SET_NO":999,"REV_AT_EPOCH":2093,"BSTAR":0,"MEAN_MOTION_DOT":-2.3e-7,"MEAN_MOTION_DDOT":0},{"OBJECT_NAME":"O3B MPOWER F10","OBJECT_ID":"2025-153B","EPOCH":"2026-07-14T17:26:36.050496","CLASSIFICATION_TYPE":"U","MEAN_MOTION":5.00114844,"ECCENTRICITY":0.00024607,"INCLINATION":0.0584,"RA_OF_ASC_NODE":2.2093,"ARG_OF_PERICENTER":245.05,"MEAN_ANOMALY":112.7111,"EPHEMERIS_TYPE":0,"NORAD_CAT_ID":64867,"ELEMENT_SET_NO":999,"REV_AT_EPOCH":2340,"BSTAR":0,"MEAN_MOTION_DOT":-2.3e-7,"MEAN_MOTION_DDOT":0}]}
