O3B MPOWER F1           
1 54755U 22174A   26195.74164633 -.00000023  00000+0  00000+0 0  9993
2 54755   0.0492 339.4155 0006633 144.7519 259.8126  5.00114715 66731
O3B MPOWER F2           
1 54756U 22174B   26195.69507568 -.00000023  00000+0  00000+0 0  9996
2 54756   0.0451 339.8088 0005789 128.0659 252.1850  5.00114920 66825
O3B MPOWER F4           
1 56367U 23059A   26195.35952461 -.00000022  00000+0  00000+0 0  9997
2 56367   0.0629 350.0646 0007729 126.2127 243.7991  5.00115365 59966
O3B MPOWER F3           
1 56368U 23059B   26195.79243832 -.00000023  00000+0  00000+0 0  9992
2 56368   0.0636 349.2748 0006670 120.6211 250.1725  5.00116409 56115
O3B MPOWER F5           
1 58346U 23175A   26195.69354401 -.00000023  00000+0  00000+0 0  9993
2 58346   0.0522   9.1967 0005500 122.1582 228.6890  5.00115879 50815
O3B MPOWER F6           
1 58347U 23175B   26195.79402135 -.00000023  00000+0  00000+0 0  9993
2 58347   0.0540   0.8830 0004431 111.0991 248.0615  5.00115737 49739
O3B MPOWER F7           
1 62362U 24244A   26195.66053122 -.00000023  00000+0  00000+0 0  9997
2 62362   0.0660 342.9592 0005930 126.1262 250.9755  5.00115331 27904
O3B MPOWER F8           
1 62363U 24244B   26195.62748154 -.00000023  00000+0  00000+0 0  9990
2 62363   0.0144   3.5261 0005759  98.2666 258.2685  5.00114998 22244
O3B MPOWER F9           
1 64866U 25153A   26195.56086341 -.00000023  00000+0  00000+0 0  9996
2 64866   0.0613   5.6463 0006723 125.7890 228.6191  5.00115641 20932
O3B MPOWER F10          
1 64867U 25153B   26195.72680614 -.00000023  00000+0  00000+0 0  9998
2 64867   0.0584   2.2093 0002460 245.0500 112.7111  5.00114844 23404
